{
  "type": "FeatureCollection",
  "features": [
    {
      "type": "Feature",
      "properties": {
        "norad_id": 66401,
        "name": "STARLINK-35668",
        "group": "last-30-days",
        "lat": 52.0579403492834,
        "lon": 11.914035793892273,
        "alt_km": 410.23557155990693,
        "timestamp": "2025-12-05T14:45:14.100241+00:00",
        "meta_object_name": "STARLINK-35668",
        "meta_object_id": "2025-257X",
        "meta_epoch": "2025-12-04T15:11:15.967680",
        "meta_mean_motion": 15.49327269,
        "meta_eccentricity": 0.0001383,
        "meta_inclination": 53.1594,
        "meta_ra_of_asc_node": 302.536,
        "meta_arg_of_pericenter": 84.7482,
        "meta_mean_anomaly": 275.3685,
        "meta_ephemeris_type": 0,
        "meta_classification_type": "U",
        "meta_norad_cat_id": 66401,
        "meta_element_set_no": 999,
        "meta_rev_at_epoch": 512,
        "meta_bstar": 0.0016591,
        "meta_mean_motion_dot": 0.00092988,
        "meta_mean_motion_ddot": 0,
        "tle_line1": "1 66401U 25257X   25338.63282370  .00092988  00000+0  16591-2 0  9999",
        "tle_line2": "2 66401  53.1594 302.5360 0001383  84.7482 275.3685 15.49327269  5125"
      },
      "geometry": {
        "type": "Point",
        "coordinates": [
          11.914035793892273,
          52.0579403492834
        ]
      }
    },
    {
      "type": "Feature",
      "properties": {
        "norad_id": 66402,
        "name": "STARLINK-35644",
        "group": "last-30-days",
        "lat": 51.206232678372594,
        "lon": 6.702721391126075,
        "alt_km": 410.01027223664005,
        "timestamp": "2025-12-05T14:45:14.100250+00:00",
        "meta_object_name": "STARLINK-35644",
        "meta_object_id": "2025-257Y",
        "meta_epoch": "2025-12-04T09:00:41.115168",
        "meta_mean_motion": 15.49361816,
        "meta_eccentricity": 0.0001366,
        "meta_inclination": 53.1595,
        "meta_ra_of_asc_node": 303.7737,
        "meta_arg_of_pericenter": 92.3503,
        "meta_mean_anomaly": 267.7663,
        "meta_ephemeris_type": 0,
        "meta_classification_type": "U",
        "meta_norad_cat_id": 66402,
        "meta_element_set_no": 999,
        "meta_rev_at_epoch": 508,
        "meta_bstar": 0.0020479,
        "meta_mean_motion_dot": 0.00115355,
        "meta_mean_motion_ddot": 0,
        "tle_line1": "1 66402U 25257Y   25338.37547587  .00115355  00000+0  20479-2 0  9999",
        "tle_line2": "2 66402  53.1595 303.7737 0001366  92.3503 267.7663 15.49361816  5080"
      },
      "geometry": {
        "type": "Point",
        "coordinates": [
          6.702721391126075,
          51.206232678372594
        ]
      }
    },
    {
      "type": "Feature",
      "properties": {
        "norad_id": 66403,
        "name": "STARLINK-35602",
        "group": "last-30-days",
        "lat": 52.448133002568134,
        "lon": 15.059987012461958,
        "alt_km": 410.04253004890415,
        "timestamp": "2025-12-05T14:45:14.100262+00:00",
        "meta_object_name": "STARLINK-35602",
        "meta_object_id": "2025-257Z",
        "meta_epoch": "2025-12-04T12:04:59.236032",
        "meta_mean_motion": 15.49333398,
        "meta_eccentricity": 0.0001642,
        "meta_inclination": 53.1594,
        "meta_ra_of_asc_node": 303.1506,
        "meta_arg_of_pericenter": 71.9763,
        "meta_mean_anomaly": 288.1425,
        "meta_ephemeris_type": 0,
        "meta_classification_type": "U",
        "meta_norad_cat_id": 66403,
        "meta_element_set_no": 999,
        "meta_rev_at_epoch": 510,
        "meta_bstar": 0.0013174,
        "meta_mean_motion_dot": 0.00073579,
        "meta_mean_motion_ddot": 0,
        "tle_line1": "1 66403U 25257Z   25338.50346338  .00073579  00000+0  13174-2 0  9991",
        "tle_line2": "2 66403  53.1594 303.1506 0001642  71.9763 288.1425 15.49333398  5106"
      },
      "geometry": {
        "type": "Point",
        "coordinates": [
          15.059987012461958,
          52.448133002568134
        ]
      }
    },
    {
      "type": "Feature",
      "properties": {
        "norad_id": 66404,
        "name": "STARLINK-35691",
        "group": "last-30-days",
        "lat": 52.80047883034023,
        "lon": 18.856957180209147,
        "alt_km": 408.60125374628296,
        "timestamp": "2025-12-05T14:45:14.100272+00:00",
        "meta_object_name": "STARLINK-35691",
        "meta_object_id": "2025-257AA",
        "meta_epoch": "2025-12-04T15:10:17.080032",
        "meta_mean_motion": 15.49358169,
        "meta_eccentricity": 0.0002641,
        "meta_inclination": 53.1593,
        "meta_ra_of_asc_node": 302.5309,
        "meta_arg_of_pericenter": 77.8032,
        "meta_mean_anomaly": 282.3272,
        "meta_ephemeris_type": 0,
        "meta_classification_type": "U",
        "meta_norad_cat_id": 66404,
        "meta_element_set_no": 999,
        "meta_rev_at_epoch": 512,
        "meta_bstar": 0.0035186,
        "meta_mean_motion_dot": 0.00200705,
        "meta_mean_motion_ddot": 0,
        "tle_line1": "1 66404U 25257AA  25338.63214213  .00200705  00000+0  35186-2 0  9992",
        "tle_line2": "2 66404  53.1593 302.5309 0002641  77.8032 282.3272 15.49358169  5125"
      },
      "geometry": {
        "type": "Point",
        "coordinates": [
          18.856957180209147,
          52.80047883034023
        ]
      }
    },
    {
      "type": "Feature",
      "properties": {
        "norad_id": 66405,
        "name": "STARLINK-35683",
        "group": "last-30-days",
        "lat": 52.99086914606006,
        "lon": 21.874841566080338,
        "alt_km": 409.48088561949316,
        "timestamp": "2025-12-05T14:45:14.100282+00:00",
        "meta_object_name": "STARLINK-35683",
        "meta_object_id": "2025-257AB",
        "meta_epoch": "2025-12-04T15:09:46.992960",
        "meta_mean_motion": 15.49351449,
        "meta_eccentricity": 0.0001518,
        "meta_inclination": 53.1592,
        "meta_ra_of_asc_node": 302.5279,
        "meta_arg_of_pericenter": 92.4448,
        "meta_mean_anomaly": 267.6735,
        "meta_ephemeris_type": 0,
        "meta_classification_type": "U",
        "meta_norad_cat_id": 66405,
        "meta_element_set_no": 999,
        "meta_rev_at_epoch": 505,
        "meta_bstar": 0.0031464,
        "meta_mean_motion_dot": 0.00178873,
        "meta_mean_motion_ddot": 0,
        "tle_line1": "1 66405U 25257AB  25338.63179390  .00178873  00000+0  31464-2 0  9994",
        "tle_line2": "2 66405  53.1592 302.5279 0001518  92.4448 267.6735 15.49351449  5053"
      },
      "geometry": {
        "type": "Point",
        "coordinates": [
          21.874841566080338,
          52.99086914606006
        ]
      }
    },
    {
      "type": "Feature",
      "properties": {
        "norad_id": 66406,
        "name": "STARLINK-34840",
        "group": "last-30-days",
        "lat": 53.0930537592722,
        "lon": 31.13600862648728,
        "alt_km": 409.75657910655445,
        "timestamp": "2025-12-05T14:45:14.100292+00:00",
        "meta_object_name": "STARLINK-34840",
        "meta_object_id": "2025-257AC",
        "meta_epoch": "2025-12-04T15:08:17.830752",
        "meta_mean_motion": 15.49343612,
        "meta_eccentricity": 0.00015287,
        "meta_inclination": 53.159,
        "meta_ra_of_asc_node": 302.5205,
        "meta_arg_of_pericenter": 83.4462,
        "meta_mean_anomaly": 276.6721,
        "meta_ephemeris_type": 0,
        "meta_classification_type": "U",
        "meta_norad_cat_id": 66406,
        "meta_element_set_no": 999,
        "meta_rev_at_epoch": 506,
        "meta_bstar": 0.0022591517,
        "meta_mean_motion_dot": 0.00127421,
        "meta_mean_motion_ddot": 0,
        "tle_line1": "1 66406U 25257AC  25338.63076193  .00127421  00000+0  22592-2 0  9997",
        "tle_line2": "2 66406  53.1590 302.5205 0001528  83.4462 276.6721 15.49343612  5067"
      },
      "geometry": {
        "type": "Point",
        "coordinates": [
          31.13600862648728,
          53.0930537592722
        ]
      }
    },
    {
      "type": "Feature",
      "properties": {
        "norad_id": 66407,
        "name": "STARLINK-35686",
        "group": "last-30-days",
        "lat": 53.10720207736348,
        "lon": 25.047748375364797,
        "alt_km": 409.5398973773945,
        "timestamp": "2025-12-05T14:45:14.100317+00:00",
        "meta_object_name": "STARLINK-35686",
        "meta_object_id": "2025-257AD",
        "meta_epoch": "2025-12-04T15:09:17.307648",
        "meta_mean_motion": 15.49354281,
        "meta_eccentricity": 0.0001432,
        "meta_inclination": 53.1591,
        "meta_ra_of_asc_node": 302.5257,
        "meta_arg_of_pericenter": 80.3679,
        "meta_mean_anomaly": 279.7491,
        "meta_ephemeris_type": 0,
        "meta_classification_type": "U",
        "meta_norad_cat_id": 66407,
        "meta_element_set_no": 999,
        "meta_rev_at_epoch": 512,
        "meta_bstar": 0.0030392,
        "meta_mean_motion_dot": 0.00172642,
        "meta_mean_motion_ddot": 0,
        "tle_line1": "1 66407U 25257AD  25338.63145032  .00172642  00000+0  30392-2 0  9999",
        "tle_line2": "2 66407  53.1591 302.5257 0001432  80.3679 279.7491 15.49354281  5125"
      },
      "geometry": {
        "type": "Point",
        "coordinates": [
          25.047748375364797,
          53.10720207736348
        ]
      }
    }
  ]
}